HAWK-2C                 
1 47502U 21006CT  26068.67595434  .00008129  00000+0  25493-3 0  9997
2 47502  97.2417 114.9961 0006943 184.0877 176.0310 15.33286436284247
STARLINK-36130          
1 66931U 25286G   26068.07736002  .00037248  00000+0  12635-2 0  9997
2 66931  53.1622   1.2527 0000666 111.3589 248.7483 15.30197984 15323
